[
    {
        "Altitude(m)": 553909.5553617174,
        "Argument of Periapsis(deg)": 0.033114955553567506,
        "Eccentricity": 0.0,
        "Inclination(deg)": 53.0,
        "Latitude(deg)": 21.196290552679603,
        "Longitude(deg)": 47.907727348665844,
        "Mean Anomaly(deg)": 26.82166433788793,
        "RAAN(deg)": 134.95071684264008,
        "Satellite Name": "Starlink Shell 1 614",
        "Satellite Number": 614,
        "Semi-Major Axis(m)": 6931778.249405717,
        "Time(s)": 950
    },
    {
        "Altitude(m)": 553954.877226306,
        "Argument of Periapsis(deg)": 0.03346353403307874,
        "Eccentricity": 0.0,
        "Inclination(deg)": 53.0,
        "Latitude(deg)": 21.677478065345895,
        "Longitude(deg)": 48.300922390538894,
        "Mean Anomaly(deg)": 27.4484955414446,
        "RAAN(deg)": 134.9501980725626,
        "Satellite Name": "Starlink Shell 1 614",
        "Satellite Number": 614,
        "Semi-Major Axis(m)": 6931778.249405717,
        "Time(s)": 960
    },
    {
        "Altitude(m)": 554002.1369063671,
        "Argument of Periapsis(deg)": 0.03381211251258998,
        "Eccentricity": 0.0,
        "Inclination(deg)": 53.0,
        "Latitude(deg)": 22.15749451376144,
        "Longitude(deg)": 48.697006384602716,
        "Mean Anomaly(deg)": 28.075326745001373,
        "RAAN(deg)": 134.94967930248512,
        "Satellite Name": "Starlink Shell 1 614",
        "Satellite Number": 614,
        "Semi-Major Axis(m)": 6931778.249405717,
        "Time(s)": 970
    },
    {
        "Altitude(m)": 554051.290645783,
        "Argument of Periapsis(deg)": 0.034160690992101214,
        "Eccentricity": 0.0,
        "Inclination(deg)": 53.0,
        "Latitude(deg)": 22.636303583915257,
        "Longitude(deg)": 49.096062403692294,
        "Mean Anomaly(deg)": 28.70215794855802,
        "RAAN(deg)": 134.94916053240766,
        "Satellite Name": "Starlink Shell 1 614",
        "Satellite Number": 614,
        "Semi-Major Axis(m)": 6931778.249405717,
        "Time(s)": 980
    },
    {
        "Altitude(m)": 554102.2939015559,
        "Argument of Periapsis(deg)": 0.034509269471612446,
        "Eccentricity": 0.0,
        "Inclination(deg)": 53.0,
        "Latitude(deg)": 23.113868260746646,
        "Longitude(deg)": 49.49817518505398,
        "Mean Anomaly(deg)": 29.328989152114765,
        "RAAN(deg)": 134.9486417623302,
        "Satellite Name": "Starlink Shell 1 614",
        "Satellite Number": 614,
        "Semi-Major Axis(m)": 6931778.249405717,
        "Time(s)": 990
    }
]